STARLINK-1679           
1 46557U 20070AB  25216.57676255  .00001972  00000+0  15120-3 0  9995
2 46557  53.0543  55.6502 0001375  81.5618 278.5527 15.06403543267009
STARLINK-1680           
1 46558U 20070AC  25216.57778605  .00000405  00000+0  46056-4 0  9991
2 46558  53.0545  56.2752 0001408  91.6377 268.4773 15.06398940267002
STARLINK-1681           
1 46559U 20070AD  25216.48172597  .00057339  00000+0  23168-2 0  9995
2 46559  53.0681  28.9632 0005669  69.8552 290.3055 15.24213576267369
STARLINK-1714           
1 46562U 20070AG  25216.55813840  .00022114  00000+0  11317-2 0  9996
2 46562  53.0582  49.4295 0002952 200.7443 159.3431 15.16567475267085
STARLINK-1730           
1 46563U 20070AH  25216.53578922  .00034119  00000+0  18357-2 0  9993
2 46563  53.0525  48.7881 0002726 154.8026 205.3100 15.14565661267090
STARLINK-1733           
1 46564U 20070AJ  25216.58010030  .00000277  00000+0  37487-4 0  9995
2 46564  53.0493  51.3350 0001322  89.2373 270.8767 15.06393897267067
STARLINK-1735           
1 46565U 20070AK  25216.55060376  .00003141  00000+0  22961-3 0  9994
2 46565  53.0550  51.3987 0001261  91.4913 268.6221 15.06403362267053
STARLINK-1740           
1 46566U 20070AL  25216.53585164  .00000863  00000+0  76820-4 0  9992
2 46566  53.0554  51.4586 0001216  85.9344 274.1784 15.06403626267059
STARLINK-1741           
1 46567U 20070AM  25216.56534344 -.00000328  00000+0 -31002-5 0  9992
2 46567  53.0553  51.3258 0001370  93.1012 267.0134 15.06395916267061
STARLINK-1531           
1 46572U 20070AS  25216.61784553  .00000630  00000+0  61157-4 0  9990
2 46572  53.0558  71.0801 0001552  89.6172 270.4995 15.06401109266787
STARLINK-1660           
1 46574U 20070AU  25216.58335648  .00026193  00000+0  16816-3 0  9998
2 46574  53.0369   6.8841 0007658 294.3514 236.8422 15.76057155  6066
STARLINK-1675           
1 46575U 20070AV  25215.13016787  .00065118  00000+0  10086-2 0  9991
2 46575  53.0506   4.0680 0002017 145.1824 214.9318 15.53449945267597
STARLINK-1677           
1 46576U 20070AW  25216.57410197  .00000955  00000+0  83026-4 0  9998
2 46576  53.0539  56.2889 0001402 104.9842 255.1302 15.06395050266992
STARLINK-1683           
1 46578U 20070AY  25216.51212150  .00041780  00000+0  17070-2 0  9998
2 46578  53.0274  28.2292 0002675   5.9304 354.1723 15.23993059267386
STARLINK-1705           
1 46579U 20070AZ  25215.57004464  .00054949  00000+0  17477-2 0  9993
2 46579  53.0541  58.4421 0001358 177.2646 182.8362 15.32094496266877
STARLINK-1712           
1 46581U 20070BB  25216.14846053  .00069029  00000+0  23619-2 0  9998
2 46581  53.0593  49.1552 0002881 227.7926 132.2829 15.29631688267057
STARLINK-1728           
1 46582U 20070BC  25216.51744294  .00001785  00000+0  13875-3 0  9993
2 46582  53.0560  51.5400 0001171  88.7640 271.3483 15.06389248267058
