[{"OBJECT_NAME":"STARLINK-1679","OBJECT_ID":"2020-070AB","EPOCH":"2025-08-04T13:50:32.284320","MEAN_MOTION":15.06403543,"ECCENTRICITY":0.0001375,"INCLINATION":53.0543,"RA_OF_ASC_NODE":55.6502,"ARG_OF_PERICENTER":81.5618,"MEAN_ANOMALY":278.5527,"EPHEMERIS_TYPE":0,"CLASSIFICATION_TYPE":"U","NORAD_CAT_ID":46557,"ELEMENT_SET_NO":999,"REV_AT_EPOCH":26700,"BSTAR":0.0001512,"MEAN_MOTION_DOT":1.972e-5,"MEAN_MOTION_DDOT":0},{"OBJECT_NAME":"STARLINK-1680","OBJECT_ID":"2020-070AC","EPOCH":"2025-08-04T13:52:00.714720","MEAN_MOTION":15.0639894,"ECCENTRICITY":0.0001408,"INCLINATION":53.0545,"RA_OF_ASC_NODE":56.2752,"ARG_OF_PERICENTER":91.6377,"MEAN_ANOMALY":268.4773,"EPHEMERIS_TYPE":0,"CLASSIFICATION_TYPE":"U","NORAD_CAT_ID":46558,"ELEMENT_SET_NO":999,"REV_AT_EPOCH":26700,"BSTAR":4.6056e-5,"MEAN_MOTION_DOT":4.05e-6,"MEAN_MOTION_DDOT":0},{"OBJECT_NAME":"STARLINK-1681","OBJECT_ID":"2020-070AD","EPOCH":"2025-08-04T11:33:41.123808","MEAN_MOTION":15.24213576,"ECCENTRICITY":0.0005669,"INCLINATION":53.0681,"RA_OF_ASC_NODE":28.9632,"ARG_OF_PERICENTER":69.8552,"MEAN_ANOMALY":290.3055,"EPHEMERIS_TYPE":0,"CLASSIFICATION_TYPE":"U","NORAD_CAT_ID":46559,"ELEMENT_SET_NO":999,"REV_AT_EPOCH":26736,"BSTAR":0.0023168,"MEAN_MOTION_DOT":0.00057339,"MEAN_MOTION_DDOT":0},{"OBJECT_NAME":"STARLINK-1714","OBJECT_ID":"2020-070AG","EPOCH":"2025-08-04T13:23:43.157760","MEAN_MOTION":15.16567475,"ECCENTRICITY":0.0002952,"INCLINATION":53.0582,"RA_OF_ASC_NODE":49.4295,"ARG_OF_PERICENTER":200.7443,"MEAN_ANOMALY":159.3431,"EPHEMERIS_TYPE":0,"CLASSIFICATION_TYPE":"U","NORAD_CAT_ID":46562,"ELEMENT_SET_NO":999,"REV_AT_EPOCH":26708,"BSTAR":0.0011317,"MEAN_MOTION_DOT":0.00022114,"MEAN_MOTION_DDOT":0},{"OBJECT_NAME":"STARLINK-1730","OBJECT_ID":"2020-070AH","EPOCH":"2025-08-04T12:51:32.188608","MEAN_MOTION":15.14565661,"ECCENTRICITY":0.0002726,"INCLINATION":53.0525,"RA_OF_ASC_NODE":48.7881,"ARG_OF_PERICENTER":154.8026,"MEAN_ANOMALY":205.31,"EPHEMERIS_TYPE":0,"CLASSIFICATION_TYPE":"U","NORAD_CAT_ID":46563,"ELEMENT_SET_NO":999,"REV_AT_EPOCH":26709,"BSTAR":0.0018357,"MEAN_MOTION_DOT":0.00034119,"MEAN_MOTION_DDOT":0},{"OBJECT_NAME":"STARLINK-1733","OBJECT_ID":"2020-070AJ","EPOCH":"2025-08-04T13:55:20.665920","MEAN_MOTION":15.06393897,"ECCENTRICITY":0.0001322,"INCLINATION":53.0493,"RA_OF_ASC_NODE":51.335,"ARG_OF_PERICENTER":89.2373,"MEAN_ANOMALY":270.8767,"EPHEMERIS_TYPE":0,"CLASSIFICATION_TYPE":"U","NORAD_CAT_ID":46564,"ELEMENT_SET_NO":999,"REV_AT_EPOCH":26706,"BSTAR":3.7487e-5,"MEAN_MOTION_DOT":2.77e-6,"MEAN_MOTION_DDOT":0},{"OBJECT_NAME":"STARLINK-1735","OBJECT_ID":"2020-070AK","EPOCH":"2025-08-04T13:12:52.164864","MEAN_MOTION":15.06403362,"ECCENTRICITY":0.0001261,"INCLINATION":53.055,"RA_OF_ASC_NODE":51.3987,"ARG_OF_PERICENTER":91.4913,"MEAN_ANOMALY":268.6221,"EPHEMERIS_TYPE":0,"CLASSIFICATION_TYPE":"U","NORAD_CAT_ID":46565,"ELEMENT_SET_NO":999,"REV_AT_EPOCH":26705,"BSTAR":0.00022961,"MEAN_MOTION_DOT":3.141e-5,"MEAN_MOTION_DDOT":0},{"OBJECT_NAME":"STARLINK-1740","OBJECT_ID":"2020-070AL","EPOCH":"2025-08-04T12:51:37.581696","MEAN_MOTION":15.06403626,"ECCENTRICITY":0.0001216,"INCLINATION":53.0554,"RA_OF_ASC_NODE":51.4586,"ARG_OF_PERICENTER":85.9344,"MEAN_ANOMALY":274.1784,"EPHEMERIS_TYPE":0,"CLASSIFICATION_TYPE":"U","NORAD_CAT_ID":46566,"ELEMENT_SET_NO":999,"REV_AT_EPOCH":26705,"BSTAR":7.682e-5,"MEAN_MOTION_DOT":8.63e-6,"MEAN_MOTION_DDOT":0},{"OBJECT_NAME":"STARLINK-1741","OBJECT_ID":"2020-070AM","EPOCH":"2025-08-04T13:34:05.673216","MEAN_MOTION":15.06395916,"ECCENTRICITY":0.000137,"INCLINATION":53.0553,"RA_OF_ASC_NODE":51.3258,"ARG_OF_PERICENTER":93.1012,"MEAN_ANOMALY":267.0134,"EPHEMERIS_TYPE":0,"CLASSIFICATION_TYPE":"U","NORAD_CAT_ID":46567,"ELEMENT_SET_NO":999,"REV_AT_EPOCH":26706,"BSTAR":-3.1002e-6,"MEAN_MOTION_DOT":-3.28e-6,"MEAN_MOTION_DDOT":0},{"OBJECT_NAME":"STARLINK-1531","OBJECT_ID":"2020-070AS","EPOCH":"2025-08-04T14:49:41.853792","MEAN_MOTION":15.06401109,"ECCENTRICITY":0.0001552,"INCLINATION":53.0558,"RA_OF_ASC_NODE":71.0801,"ARG_OF_PERICENTER":89.6172,"MEAN_ANOMALY":270.4995,"EPHEMERIS_TYPE":0,"CLASSIFICATION_TYPE":"U","NORAD_CAT_ID":46572,"ELEMENT_SET_NO":999,"REV_AT_EPOCH":26678,"BSTAR":6.1157e-5,"MEAN_MOTION_DOT":6.3e-6,"MEAN_MOTION_DDOT":0},{"OBJECT_NAME":"STARLINK-1660","OBJECT_ID":"2020-070AU","EPOCH":"2025-08-04T14:00:01.999872","MEAN_MOTION":15.76057155,"ECCENTRICITY":0.0007658,"INCLINATION":53.0369,"RA_OF_ASC_NODE":6.8841,"ARG_OF_PERICENTER":294.3514,"MEAN_ANOMALY":236.8422,"EPHEMERIS_TYPE":0,"CLASSIFICATION_TYPE":"U","NORAD_CAT_ID":46574,"ELEMENT_SET_NO":999,"REV_AT_EPOCH":606,"BSTAR":0.00016816,"MEAN_MOTION_DOT":0.00026193,"MEAN_MOTION_DDOT":0},{"OBJECT_NAME":"STARLINK-1675","OBJECT_ID":"2020-070AV","EPOCH":"2025-08-03T03:07:26.503968","MEAN_MOTION":15.53449945,"ECCENTRICITY":0.0002017,"INCLINATION":53.0506,"RA_OF_ASC_NODE":4.068,"ARG_OF_PERICENTER":145.1824,"MEAN_ANOMALY":214.9318,"EPHEMERIS_TYPE":0,"CLASSIFICATION_TYPE":"U","NORAD_CAT_ID":46575,"ELEMENT_SET_NO":999,"REV_AT_EPOCH":26759,"BSTAR":0.0010086,"MEAN_MOTION_DOT":0.00065118,"MEAN_MOTION_DDOT":0},{"OBJECT_NAME":"STARLINK-1677","OBJECT_ID":"2020-070AW","EPOCH":"2025-08-04T13:46:42.410208","MEAN_MOTION":15.0639505,"ECCENTRICITY":0.0001402,"INCLINATION":53.0539,"RA_OF_ASC_NODE":56.2889,"ARG_OF_PERICENTER":104.9842,"MEAN_ANOMALY":255.1302,"EPHEMERIS_TYPE":0,"CLASSIFICATION_TYPE":"U","NORAD_CAT_ID":46576,"ELEMENT_SET_NO":999,"REV_AT_EPOCH":26699,"BSTAR":8.3026e-5,"MEAN_MOTION_DOT":9.55e-6,"MEAN_MOTION_DDOT":0},{"OBJECT_NAME":"STARLINK-1683","OBJECT_ID":"2020-070AY","EPOCH":"2025-08-04T12:17:27.297600","MEAN_MOTION":15.23993059,"ECCENTRICITY":0.0002675,"INCLINATION":53.0274,"RA_OF_ASC_NODE":28.2292,"ARG_OF_PERICENTER":5.9304,"MEAN_ANOMALY":354.1723,"EPHEMERIS_TYPE":0,"CLASSIFICATION_TYPE":"U","NORAD_CAT_ID":46578,"ELEMENT_SET_NO":999,"REV_AT_EPOCH":26738,"BSTAR":0.001707,"MEAN_MOTION_DOT":0.0004178,"MEAN_MOTION_DDOT":0},{"OBJECT_NAME":"STARLINK-1705","OBJECT_ID":"2020-070AZ","EPOCH":"2025-08-03T13:40:51.856896","MEAN_MOTION":15.32094496,"ECCENTRICITY":0.0001358,"INCLINATION":53.0541,"RA_OF_ASC_NODE":58.4421,"ARG_OF_PERICENTER":177.2646,"MEAN_ANOMALY":182.8362,"EPHEMERIS_TYPE":0,"CLASSIFICATION_TYPE":"U","NORAD_CAT_ID":46579,"ELEMENT_SET_NO":999,"REV_AT_EPOCH":26687,"BSTAR":0.0017477,"MEAN_MOTION_DOT":0.00054949,"MEAN_MOTION_DDOT":0},{"OBJECT_NAME":"STARLINK-1712","OBJECT_ID":"2020-070BB","EPOCH":"2025-08-04T03:33:46.989792","MEAN_MOTION":15.29631688,"ECCENTRICITY":0.0002881,"INCLINATION":53.0593,"RA_OF_ASC_NODE":49.1552,"ARG_OF_PERICENTER":227.7926,"MEAN_ANOMALY":132.2829,"EPHEMERIS_TYPE":0,"CLASSIFICATION_TYPE":"U","NORAD_CAT_ID":46581,"ELEMENT_SET_NO":999,"REV_AT_EPOCH":26705,"BSTAR":0.0023619,"MEAN_MOTION_DOT":0.00069029,"MEAN_MOTION_DDOT":0},{"OBJECT_NAME":"STARLINK-1728","OBJECT_ID":"2020-070BC","EPOCH":"2025-08-04T12:25:07.070016","MEAN_MOTION":15.06389248,"ECCENTRICITY":0.0001171,"INCLINATION":53.056,"RA_OF_ASC_NODE":51.54,"ARG_OF_PERICENTER":88.764,"MEAN_ANOMALY":271.3483,"EPHEMERIS_TYPE":0,"CLASSIFICATION_TYPE":"U","NORAD_CAT_ID":46582,"ELEMENT_SET_NO":999,"REV_AT_EPOCH":26705,"BSTAR":0.00013875,"MEAN_MOTION_DOT":1.785e-5,"MEAN_MOTION_DDOT":0}]
